{"type": "FeatureCollection", "features": [ {"type": "Feature", "properties": {"norad_id": 66593, "name": "STARLINK-36031", "group": "last-30-days", "lat": -18.245815245655958, "lon": -10.973896870579992, "alt_km": 445.3272348993114, "timestamp": "2025-12-20T09:36:00.351079+00:00", "meta": {"OBJECT_NAME": "STARLINK-36031", "OBJECT_ID": "2025-270F", "EPOCH": "2025-12-20T00:00:02.000160", "MEAN_MOTION": 15.4068271, "ECCENTRICITY": 0.0001727, "INCLINATION": 42.9996, "RA_OF_ASC_NODE": 150.6127, "ARG_OF_PERICENTER": 270.7135, "MEAN_ANOMALY": 235.4296, "EPHEMERIS_TYPE": 0, "CLASSIFICATION_TYPE": "U", "NORAD_CAT_ID": 66593, "ELEMENT_SET_NO": 999, "REV_AT_EPOCH": 556, "BSTAR": 0.0009194, "MEAN_MOTION_DOT": 0.00038273, "MEAN_MOTION_DDOT": 0}, "tle": {"line1": "1 66593U 25270F   25354.00002315  .00038273  00000+0  91940-3 0  9993", "line2": "2 66593  42.9996 150.6127 0001727 270.7135 235.4296 15.40682710  5565"}}, "geometry": {"type": "Point", "coordinates": [-10.973896870579992, -18.245815245655958]}}, {"type": "Feature", "properties": {"norad_id": 66594, "name": "STARLINK-36032", "group": "last-30-days", "lat": -33.143417478898755, "lon": 103.57746855117033, "alt_km": 446.3229553137371, "timestamp": "2025-12-20T09:36:00.351090+00:00", "meta": {"OBJECT_NAME": "STARLINK-36032", "OBJECT_ID": "2025-270G", "EPOCH": "2025-12-20T04:00:00.999072", "MEAN_MOTION": 15.40675357, "ECCENTRICITY": 0.0001582, "INCLINATION": 42.9998, "RA_OF_ASC_NODE": 149.4078, "ARG_OF_PERICENTER": 254.7234, "MEAN_ANOMALY": 196.3334, "EPHEMERIS_TYPE": 0, "CLASSIFICATION_TYPE": "U", "NORAD_CAT_ID": 66594, "ELEMENT_SET_NO": 999, "REV_AT_EPOCH": 533, "BSTAR": 8.3224e-05, "MEAN_MOTION_DOT": 3.172e-05, "MEAN_MOTION_DDOT": 0}, "tle": {"line1": "1 66594U 25270G   25354.16667823  .00003172  00000+0  83224-4 0  9999", "line2": "2 66594  42.9998 149.4078 0001582 254.7234 196.3334 15.40675357  5332"}}, "geometry": {"type": "Point", "coordinates": [103.57746855117033, -33.143417478898755]}}, {"type": "Feature", "properties": {"norad_id": 66595, "name": "STARLINK-35711", "group": "last-30-days", "lat": 7.586521447937191, "lon": 156.1255389620181, "alt_km": 412.77985628431816, "timestamp": "2025-12-20T09:36:00.351100+00:00", "meta": {"OBJECT_NAME": "STARLINK-35711", "OBJECT_ID": "2025-270H", "EPOCH": "2025-12-20T03:22:00.602400", "MEAN_MOTION": 15.5018184, "ECCENTRICITY": 0.0003421, "INCLINATION": 42.999, "RA_OF_ASC_NODE": 149.4265, "ARG_OF_PERICENTER": 341.0071, "MEAN_ANOMALY": 19.0661, "EPHEMERIS_TYPE": 0, "CLASSIFICATION_TYPE": "U", "NORAD_CAT_ID": 66595, "ELEMENT_SET_NO": 999, "REV_AT_EPOCH": 560, "BSTAR": 0.0012293, "MEAN_MOTION_DOT": 0.00071426, "MEAN_MOTION_DDOT": 0}, "tle": {"line1": "1 66595U 25270H   25354.14028475  .00071426  00000+0  12293-2 0  9995", "line2": "2 66595  42.9990 149.4265 0003421 341.0071  19.0661 15.50181840  5600"}}, "geometry": {"type": "Point", "coordinates": [156.1255389620181, 7.586521447937191]}}, {"type": "Feature", "properties": {"norad_id": 66596, "name": "STARLINK-35811", "group": "last-30-days", "lat": 42.73998779869868, "lon": -114.02685096649434, "alt_km": 438.7918767778101, "timestamp": "2025-12-20T09:36:00.351110+00:00", "meta": {"OBJECT_NAME": "STARLINK-35811", "OBJECT_ID": "2025-270J", "EPOCH": "2025-12-19T19:11:07.176768", "MEAN_MOTION": 15.40716586, "ECCENTRICITY": 0.00025067, "INCLINATION": 42.999, "RA_OF_ASC_NODE": 152.0383, "ARG_OF_PERICENTER": 266.8739, "MEAN_ANOMALY": 93.1831, "EPHEMERIS_TYPE": 0, "CLASSIFICATION_TYPE": "U", "NORAD_CAT_ID": 66596, "ELEMENT_SET_NO": 999, "REV_AT_EPOCH": 554, "BSTAR": 0.00078994793, "MEAN_MOTION_DOT": 0.00032856, "MEAN_MOTION_DDOT": 0}, "tle": {"line1": "1 66596U 25270J   25353.79938862  .00032856  00000+0  78995-3 0  9992", "line2": "2 66596  42.9990 152.0383 0002506 266.8739  93.1831 15.40716586  5545"}}, "geometry": {"type": "Point", "coordinates": [-114.02685096649434, 42.73998779869868]}}, {"type": "Feature", "properties": {"norad_id": 66597, "name": "STARLINK-35820", "group": "last-30-days", "lat": 22.897477685413605, "lon": -58.49872502665754, "alt_km": 440.9830112955369, "timestamp": "2025-12-20T09:36:00.351120+00:00", "meta": {"OBJECT_NAME": "STARLINK-35820", "OBJECT_ID": "2025-270K", "EPOCH": "2025-12-19T17:24:51.873696", "MEAN_MOTION": 15.40703318, "ECCENTRICITY": 0.00014809, "INCLINATION": 42.9992, "RA_OF_ASC_NODE": 152.342, "ARG_OF_PERICENTER": 270.4129, "MEAN_ANOMALY": 89.6558, "EPHEMERIS_TYPE": 0, "CLASSIFICATION_TYPE": "U", "NORAD_CAT_ID": 66597, "ELEMENT_SET_NO": 999, "REV_AT_EPOCH": 553, "BSTAR": 0.00042249274, "MEAN_MOTION_DOT": 0.00017387, "MEAN_MOTION_DDOT": 0}, "tle": {"line1": "1 66597U 25270K   25353.72560039  .00017387  00000+0  42249-3 0  9998", "line2": "2 66597  42.9992 152.3420 0001480 270.4129  89.6558 15.40703318  5531"}}, "geometry": {"type": "Point", "coordinates": [-58.49872502665754, 22.897477685413605]}}, {"type": "Feature", "properties": {"norad_id": 66598, "name": "STARLINK-35981", "group": "last-30-days", "lat": -32.59271837760328, "lon": 11.567021319717597, "alt_km": 445.8697481006866, "timestamp": "2025-12-20T09:36:00.351130+00:00", "meta": {"OBJECT_NAME": "STARLINK-35981", "OBJECT_ID": "2025-270L", "EPOCH": "2025-12-20T04:00:00.999072", "MEAN_MOTION": 15.40702442, "ECCENTRICITY": 0.0002, "INCLINATION": 43, "RA_OF_ASC_NODE": 149.5895, "ARG_OF_PERICENTER": 270.7186, "MEAN_ANOMALY": 105.7535, "EPHEMERIS_TYPE": 0, "CLASSIFICATION_TYPE": "U", "NORAD_CAT_ID": 66598, "ELEMENT_SET_NO": 999, "REV_AT_EPOCH": 543, "BSTAR": -0.00018444, "MEAN_MOTION_DOT": -8.001e-05, "MEAN_MOTION_DDOT": 0}, "tle": {"line1": "1 66598U 25270L   25354.16667823 -.00008001  00000+0 -18444-3 0  9992", "line2": "2 66598  43.0000 149.5895 0002000 270.7186 105.7535 15.40702442  5434"}}, "geometry": {"type": "Point", "coordinates": [11.567021319717597, -32.59271837760328]}}, {"type": "Feature", "properties": {"norad_id": 66599, "name": "STARLINK-35930", "group": "last-30-days", "lat": 12.436854695009142, "lon": 161.57920632601946, "alt_km": 412.35395848782264, "timestamp": "2025-12-20T09:36:00.351141+00:00", "meta": {"OBJECT_NAME": "STARLINK-35930", "OBJECT_ID": "2025-270M", "EPOCH": "2025-12-19T04:08:36.625632", "MEAN_MOTION": 15.50348464, "ECCENTRICITY": 0.0002903, "INCLINATION": 42.9985, "RA_OF_ASC_NODE": 155.067, "ARG_OF_PERICENTER": 324.189, "MEAN_ANOMALY": 35.8775, "EPHEMERIS_TYPE": 0, "CLASSIFICATION_TYPE": "U", "NORAD_CAT_ID": 66599, "ELEMENT_SET_NO": 999, "REV_AT_EPOCH": 534, "BSTAR": -2.964998e-06, "MEAN_MOTION_DOT": -5.14e-06, "MEAN_MOTION_DDOT": 0}, "tle": {"line1": "1 66599U 25270M   25353.17264613 -.00000514  00000+0 -29650-5 0  9997", "line2": "2 66599  42.9985 155.0670 0002903 324.1890  35.8775 15.50348464  5346"}}, "geometry": {"type": "Point", "coordinates": [161.57920632601946, 12.436854695009142]}}, {"type": "Feature", "properties": {"norad_id": 66600, "name": "STARLINK-35980", "group": "last-30-days", "lat": -41.84324172900134, "lon": 74.19040510074363, "alt_km": 446.0435606559013, "timestamp": "2025-12-20T09:36:00.351151+00:00", "meta": {"OBJECT_NAME": "STARLINK-35980", "OBJECT_ID": "2025-270N", "EPOCH": "2025-12-20T04:00:00.999072", "MEAN_MOTION": 15.4070286, "ECCENTRICITY": 0.0001964, "INCLINATION": 43.0002, "RA_OF_ASC_NODE": 149.4686, "ARG_OF_PERICENTER": 272.8954, "MEAN_ANOMALY": 153.3335, "EPHEMERIS_TYPE": 0, "CLASSIFICATION_TYPE": "U", "NORAD_CAT_ID": 66600, "ELEMENT_SET_NO": 999, "REV_AT_EPOCH": 549, "BSTAR": -0.00015439, "MEAN_MOTION_DOT": -6.748e-05, "MEAN_MOTION_DDOT": 0}, "tle": {"line1": "1 66600U 25270N   25354.16667823 -.00006748  00000+0 -15439-3 0  9993", "line2": "2 66600  43.0002 149.4686 0001964 272.8954 153.3335 15.40702860  5498"}}, "geometry": {"type": "Point", "coordinates": [74.19040510074363, -41.84324172900134]}}, {"type": "Feature", "properties": {"norad_id": 66601, "name": "STARLINK-35978", "group": "last-30-days", "lat": -1.8484950707588717, "lon": -29.6515211781845, "alt_km": 444.1552545145478, "timestamp": "2025-12-20T09:36:00.351164+00:00", "meta": {"OBJECT_NAME": "STARLINK-35978", "OBJECT_ID": "2025-270P", "EPOCH": "2025-12-19T18:48:31.837248", "MEAN_MOTION": 15.40749629, "ECCENTRICITY": 0.00015732, "INCLINATION": 43.0003, "RA_OF_ASC_NODE": 151.9165, "ARG_OF_PERICENTER": 292.4203, "MEAN_ANOMALY": 67.6487, "EPHEMERIS_TYPE": 0, "CLASSIFICATION_TYPE": "U", "NORAD_CAT_ID": 66601, "ELEMENT_SET_NO": 999, "REV_AT_EPOCH": 527, "BSTAR": 0.0011909611, "MEAN_MOTION_DOT": 0.00049854, "MEAN_MOTION_DDOT": 0}, "tle": {"line1": "1 66601U 25270P   25353.78370182  .00049854  00000+0  11910-2 0  9992", "line2": "2 66601  43.0003 151.9165 0001573 292.4203  67.6487 15.40749629  5276"}}, "geometry": {"type": "Point", "coordinates": [-29.6515211781845, -1.8484950707588717]}}, {"type": "Feature", "properties": {"norad_id": 66602, "name": "STARLINK-36050", "group": "last-30-days", "lat": 40.43674136130756, "lon": -97.59326089242495, "alt_km": 438.4217022301491, "timestamp": "2025-12-20T09:36:00.351176+00:00", "meta": {"OBJECT_NAME": "STARLINK-36050", "OBJECT_ID": "2025-270Q", "EPOCH": "2025-12-19T17:34:32.507616", "MEAN_MOTION": 15.40725936, "ECCENTRICITY": 0.00016299, "INCLINATION": 42.9991, "RA_OF_ASC_NODE": 152.3934, "ARG_OF_PERICENTER": 264.4094, "MEAN_ANOMALY": 95.6576, "EPHEMERIS_TYPE": 0, "CLASSIFICATION_TYPE": "U", "NORAD_CAT_ID": 66602, "ELEMENT_SET_NO": 999, "REV_AT_EPOCH": 532, "BSTAR": 0.00096253601, "MEAN_MOTION_DOT": 0.00040151, "MEAN_MOTION_DDOT": 0}, "tle": {"line1": "1 66602U 25270Q   25353.73232069  .00040151  00000+0  96254-3 0  9995", "line2": "2 66602  42.9991 152.3934 0001629 264.4094  95.6576 15.40725936  5320"}}, "geometry": {"type": "Point", "coordinates": [-97.59326089242495, 40.43674136130756]}}]}